NORAD_CAT_ID,OBJECT_NAME,OBJECT_TYPE,EPOCH,MEAN_MOTION,ECCENTRICITY,INCLINATION,RA_OF_ASC_NODE,ARG_OF_PERICENTER,MEAN_ANOMALY,BSTAR,MEAN_MOTION_DOT,MEAN_MOTION_DDOT,TLE_LINE0,TLE_LINE1,TLE_LINE2,SEMIMAJOR_AXIS,PERIOD,APOGEE,PERIGEE,DECAYED
54099.0,STARLINK-5198,PAYLOAD,2024-02-21 12:33:42,15.0884325,0.00019,53.218,87.8402,96.7563,263.3645,0.00015351,2.156e-05,0.0,0 STARLINK-5198,1 54099U 22136BA  24052.52340794  .00002156  00000-0  15351-3 0  9990,2 54099  53.2180  87.8402 0001900  96.7563 263.3645 15.08843250 74199,6917.87,95.437,541.05,538.421,0.0
54099.0,STARLINK-5198,PAYLOAD,2024-02-21 18:55:15,15.08837715,0.0001645,53.2162,86.6442,83.3063,276.8116,0.00012724,1.737e-05,0.0,0 STARLINK-5198,1 54099U 22136BA  24052.78837509  .00001737  00000-0  12724-3 0  9998,2 54099  53.2162  86.6442 0001645  83.3063 276.8116 15.08837715 74701,6917.887,95.438,540.89,538.614,0.0
54099.0,STARLINK-5198,PAYLOAD,2024-02-22 09:13:43,15.08843395,0.0001743,53.2173,83.9725,96.8642,263.2549,-2.6922e-05,-7.17e-06,0.0,0 STARLINK-5198,1 54099U 22136BA  24053.38453330 -.00000717  00000-0 -26922-4 0  9996,2 54099  53.2173  83.9725 0001743  96.8642 263.2549 15.08843395 74327,6917.87,95.437,540.941,538.529,0.0
54099.0,STARLINK-5198,PAYLOAD,2024-02-22 18:46:02,15.08843895,0.0001759,53.2177,82.1883,96.7051,263.4141,4.2543e-06,-2.2e-06,0.0,0 STARLINK-5198,1 54099U 22136BA  24053.78197129 -.00000220  00000-0  42543-5 0  9997,2 54099  53.2177  82.1883 0001759  96.7051 263.4141 15.08843895 74388,6917.868,95.437,540.95,538.517,0.0
54099.0,STARLINK-5198,PAYLOAD,2024-02-23 09:04:30,15.08848055,0.0001704,53.2171,79.5108,92.7777,267.341,8.8706e-05,1.124e-05,0.0,0 STARLINK-5198,1 54099U 22136BA  24054.37812641  .00001124  00000-0  88706-4 0  9999,2 54099  53.2171  79.5108 0001704  92.7777 267.3410 15.08848055 74940,6917.856,95.437,540.9,538.542,0.0
54099.0,STARLINK-5198,PAYLOAD,2024-02-23 18:36:48,15.08850823,0.0001633,53.2165,77.7247,84.0079,276.1099,7.3545e-05,8.83e-06,0.0,0 STARLINK-5198,1 54099U 22136BA  24054.77556393  .00000883  00000-0  73545-4 0  9998,2 54099  53.2165  77.7247 0001633  84.0079 276.1099 15.08850823 74539,6917.847,95.437,540.842,538.583,0.0
54099.0,STARLINK-5198,PAYLOAD,2024-02-24 00:58:21,15.08837506,0.000176,53.2182,76.5381,84.6452,275.4741,0.00014771,2.063e-05,0.0,0 STARLINK-5198,1 54099U 22136BA  24055.04053240  .00002063  00000-0  14771-3 0  9999,2 54099  53.2182  76.5381 0001760  84.6452 275.4741 15.08837506 75042,6917.888,95.438,540.971,538.535,0.0
54099.0,STARLINK-5198,PAYLOAD,2024-02-24 10:30:40,15.08841096,0.0001746,53.2173,74.7526,88.5192,271.6,8.0313e-05,9.9e-06,0.0,0 STARLINK-5198,1 54099U 22136BA  24055.43797191  .00000990  00000-0  80313-4 0  9995,2 54099  53.2173  74.7526 0001746  88.5192 271.6000 15.08841096 74630,6917.877,95.437,540.95,538.534,0.0
54099.0,STARLINK-5198,PAYLOAD,2024-02-24 18:27:36,15.08839007,0.0001781,53.2174,73.2655,87.9147,272.2049,6.5986e-05,7.62e-06,0.0,0 STARLINK-5198,1 54099U 22136BA  24055.76917441  .00000762  00000-0  65986-4 0  9999,2 54099  53.2174  73.2655 0001781  87.9147 272.2049 15.08839007 74684,6917.883,95.438,540.98,538.516,0.0
54099.0,STARLINK-5198,PAYLOAD,2024-02-25 05:35:18,15.08843093,0.0001848,53.2178,71.1834,87.0048,273.1156,6.7048e-05,7.79e-06,0.0,0 STARLINK-5198,1 54099U 22136BA  24056.23285211  .00000779  00000-0  67048-4 0  9994,2 54099  53.2178  71.1834 0001848  87.0048 273.1156 15.08843093 75229,6917.871,95.437,541.014,538.458,0.0
54099.0,STARLINK-5198,PAYLOAD,2024-02-25 07:10:41,15.08843726,0.0001641,53.2166,70.8839,89.176,270.942,7.8346e-05,9.59e-06,0.0,0 STARLINK-5198,1 54099U 22136BA  24056.29909064  .00000959  00000-0  78346-4 0  9992,2 54099  53.2166  70.8839 0001641  89.1760 270.9420 15.08843726 74762,6917.869,95.437,540.869,538.599,0.0
54099.0,STARLINK-5198,PAYLOAD,2024-02-26 07:01:27,15.0884865,0.0001592,53.2162,66.4233,93.5815,266.5359,0.00013937,1.931e-05,0.0,0 STARLINK-5198,1 54099U 22136BA  24057.29268469  .00001931  00000-0  13937-3 0  9995,2 54099  53.2162  66.4233 0001592  93.5815 266.5359 15.08848650 75384,6917.854,95.437,540.82,538.618,0.0
54099.0,STARLINK-5198,PAYLOAD,2024-02-27 03:41:29,15.08837139,0.0001876,53.2183,62.5587,97.236,262.8845,4.2593e-05,3.9e-06,0.0,0 STARLINK-5198,1 54099U 22136BA  24058.15381461  .00000390  00000-0  42593-4 0  9998,2 54099  53.2183  62.5587 0001876  97.2360 262.8845 15.08837139 75511,6917.889,95.438,541.052,538.456,0.0
54099.0,STARLINK-5198,PAYLOAD,2024-02-27 06:52:15,15.08837197,0.0001606,53.2168,61.9626,90.8418,269.2758,3.6441e-05,2.92e-06,0.0,0 STARLINK-5198,1 54099U 22136BA  24058.28629457  .00000292  00000-0  36441-4 0  9998,2 54099  53.2168  61.9626 0001606  90.8418 269.2758 15.08837197 75063,6917.889,95.438,540.865,538.643,0.0
54099.0,STARLINK-5198,PAYLOAD,2024-02-28 06:43:02,15.08850486,0.00017,53.2173,57.5043,90.2501,269.8686,-3.8129e-06,-3.49e-06,0.0,0 STARLINK-5198,1 54099U 22136BA  24059.27988860 -.00000349  00000-0 -38129-5 0  9995,2 54099  53.2173  57.5043 0001700  90.2501 269.8686 15.08850486 75685,6917.848,95.437,540.889,538.537,0.0
54099.0,STARLINK-5198,PAYLOAD,2024-02-28 16:15:21,15.08839823,0.0001665,53.2175,55.7203,93.6081,266.5101,8.2808e-05,1.03e-05,0.0,0 STARLINK-5198,1 54099U 22136BA  24059.67733259  .00001030  00000-0  82808-4 0  9997,2 54099  53.2175  55.7203 0001665  93.6081 266.5101 15.08839823 75740,6917.881,95.438,540.898,538.594,0.0
54099.0,STARLINK-5198,PAYLOAD,2024-02-29 06:33:50,15.08836514,0.0001673,53.2177,53.0454,92.647,267.4714,0.00010508,1.385e-05,0.0,0 STARLINK-5198,1 54099U 22136BA  24060.27349598  .00001385  00000-0  10508-3 0  9994,2 54099  53.2177  53.0454 0001673  92.6470 267.4714 15.08836514 75363,6917.891,95.438,540.913,538.599,0.0
54099.0,STARLINK-5198,PAYLOAD,2024-02-29 16:06:08,15.08837562,0.0001686,53.2176,51.261,91.0061,269.1125,5.2286e-05,5.44e-06,0.0,0 STARLINK-5198,1 54099U 22136BA  24060.67093714  .00000544  00000-0  52286-4 0  9990,2 54099  53.2176  51.2610 0001686  91.0061 269.1125 15.08837562 75896,6917.888,95.438,540.919,538.586,0.0
54099.0,STARLINK-5198,PAYLOAD,2024-03-01 03:13:51,15.08833119,0.0001757,53.219,49.1808,100.6518,259.4672,-2.6867e-05,-7.16e-06,0.0,0 STARLINK-5198,1 54099U 22136BA  24061.13462411 -.00000716  00000-0 -26867-4 0  9995,2 54099  53.2190  49.1808 0001757 100.6518 259.4672 15.08833119 75961,6917.901,95.438,540.982,538.551,0.0
54099.0,STARLINK-5198,PAYLOAD,2024-03-01 09:35:23,15.08839441,0.0001644,53.218,47.9898,91.6337,268.4843,1.8152e-05,1e-08,0.0,0 STARLINK-5198,1 54099U 22136BA  24061.39957969  .00000001  00000-0  18152-4 0  9993,2 54099  53.2180  47.9898 0001644  91.6337 268.4843 15.08839441 75535,6917.882,95.438,540.884,538.61,0.0
54099.0,STARLINK-5198,PAYLOAD,2024-03-01 15:56:56,15.08836833,0.0001587,53.2176,46.7999,91.6695,268.4479,1.0134e-05,-1.27e-06,0.0,0 STARLINK-5198,1 54099U 22136BA  24061.66454166 -.00000127  00000-0  10134-4 0  9996,2 54099  53.2176  46.7999 0001587  91.6695 268.4479 15.08836833 75573,6917.89,95.438,540.853,538.657,0.0
54099.0,STARLINK-5198,PAYLOAD,2024-03-02 03:04:38,15.08839521,0.0001731,53.2173,44.7171,94.0916,266.0274,6.9934e-05,8.25e-06,0.0,0 STARLINK-5198,1 54099U 22136BA  24062.12822004  .00000825  00000-0  69934-4 0  9994,2 54099  53.2173  44.7171 0001731  94.0916 266.0274 15.08839521 76119,6917.882,95.438,540.944,538.549,0.0
54099.0,STARLINK-5198,PAYLOAD,2024-03-02 06:15:24,15.08844562,0.0001599,53.2174,44.1223,91.2155,268.9021,8.1679e-05,1.012e-05,0.0,0 STARLINK-5198,1 54099U 22136BA  24062.26069680  .00001012  00000-0  81679-4 0  9991,2 54099  53.2174  44.1223 0001599  91.2155 268.9021 15.08844562 75669,6917.866,95.437,540.838,538.625,0.0
54099.0,STARLINK-5198,PAYLOAD,2024-03-03 04:30:48,15.08837095,0.0001453,53.2176,39.9587,91.9484,268.1674,0.00014636,2.042e-05,0.0,0 STARLINK-5198,1 54099U 22136BA  24063.18806011  .00002042  00000-0  14636-3 0  9992,2 54099  53.2176  39.9587 0001453  91.9484 268.1674 15.08837095 76274,6917.889,95.438,540.759,538.749,0.0
54099.0,STARLINK-5198,PAYLOAD,2024-03-03 06:06:11,15.08843325,0.0001665,53.2182,39.6624,87.756,272.3622,9.0724e-05,1.156e-05,0.0,0 STARLINK-5198,1 54099U 22136BA  24063.25429890  .00001156  00000-0  90724-4 0  9994,2 54099  53.2182  39.6624 0001665  87.7560 272.3622 15.08843325 75815,6917.87,95.437,540.887,538.583,0.0
54099.0,STARLINK-5198,PAYLOAD,2024-03-03 22:00:02,15.08844325,0.0001735,53.2183,36.6902,93.888,266.2311,0.00014497,2.02e-05,0.0,0 STARLINK-5198,1 54099U 22136BA  24063.91669762  .00002020  00000-0  14497-3 0  9994,2 54099  53.2183  36.6902 0001735  93.8880 266.2311 15.08844325 75912,6917.867,95.437,540.932,538.532,0.0
54099.0,STARLINK-5198,PAYLOAD,2024-03-04 04:21:34,15.08844531,0.0001635,53.2179,35.5037,87.5906,272.5273,0.00022109,3.233e-05,0.0,0 STARLINK-5198,1 54099U 22136BA  24064.18165253  .00003233  00000-0  22109-3 0  9996,2 54099  53.2179  35.5037 0001635  87.5906 272.5273 15.08844531 76425,6917.867,95.437,540.863,538.6,0.0
54099.0,STARLINK-5198,PAYLOAD,2024-03-04 15:29:17,15.08840364,0.0001695,53.2188,33.4174,92.3953,267.7234,2.6341e-05,1.31e-06,0.0,0 STARLINK-5198,1 54099U 22136BA  24064.64533849  .00000131  00000-0  26341-4 0  9994,2 54099  53.2188  33.4174 0001695  92.3953 267.7234 15.08840364 76496,6917.879,95.438,540.917,538.572,0.0
54099.0,STARLINK-5198,PAYLOAD,2024-03-05 07:23:08,15.08835932,0.0001576,53.2188,30.4409,104.795,255.3217,-2.1014e-05,-6.22e-06,0.0,0 STARLINK-5198,1 54099U 22136BA  24065.30774238 -.00000622  00000-0 -21014-4 0  9996,2 54099  53.2188  30.4409 0001576 104.7950 255.3217 15.08835932 76126,6917.893,95.438,540.848,538.668,0.0
54099.0,STARLINK-5198,PAYLOAD,2024-03-06 04:03:09,15.08848836,0.0001666,53.2194,26.5761,104.924,255.1936,-3.4812e-05,-8.42e-06,0.0,0 STARLINK-5198,1 54099U 22136BA  24066.16885705 -.00000842  00000-0 -34812-4 0  9997,2 54099  53.2194  26.5761 0001666 104.9240 255.1936 15.08848836 76723,6917.853,95.437,540.871,538.566,0.0
